satname,norad_id,inclination_deg,eccentricity,mean_motion_rev_per_day,perigee_km,apogee_km,l1,l2
STARLINK-1471,45735,53.0515,0.0001883,15.40584507,443.09842162735276,445.66778269782753,1 45735U 20038F   25298.65086242  .00027615  00000+0  67605-3 0  9993,2 45735  53.0515  64.5325 0001883 140.7819 219.3322 15.40584507296660
STARLINK-1474,45738,53.0394,0.0003196,15.65825077,368.70991039137425,373.02387367916344,1 45738U 20038J   25298.52866520  .00084634  00000+0  81528-3 0  9991,2 45738  53.0394  23.5512 0003196 300.4753  59.5946 15.65825077297228
STARLINK-1475,45739,53.0502,0.0005542,15.73820971,344.2607210893184,351.7159584159008,1 45739U 20038K   25298.83336806  .00144138  00000+0  98645-3 0  9999,2 45739  53.0502 348.9388 0005542 339.6313 112.1836 15.73820971  5833
STARLINK-1480,45741,53.0522,0.0001383,15.06409624,546.2242902951584,548.1398335476852,1 45741U 20038M   25298.81339110  .00002406  00000+0  18034-3 0  9996,2 45741  53.0522 122.1017 0001383  89.4365 270.6782 15.06409624295874
STARLINK-1500,45744,53.038,0.0003896,15.27186582,481.5538067861362,486.90096111411094,1 45744U 20038Q   25298.74032175  .00027178  00000+0  10154-2 0  9999,2 45744  53.0380 102.0804 0003896 168.8419 191.2666 15.27186582296141
STARLINK-1504,45746,53.0279,0.0003322,15.3975453,444.5673309404556,449.1018420625269,1 45746U 20038S   25298.66496946  .00077984  00000+0  19308-2 0  9992,2 45746  53.0279  67.5614 0003322 182.8486 177.2499 15.39754530296615
STARLINK-1506,45747,53.0549,0.0002963,15.21155795,500.3144558189397,504.39183427889657,1 45747U 20038T   25298.73906850  .00023205  00000+0  10398-2 0  9998,2 45747  53.0549 104.3277 0002963 185.9170 174.1791 15.21155795296110
STARLINK-1464,45751,53.0532,0.000135,15.06396225,546.2882041764879,548.1580514109919,1 45751U 20038X   25298.74891360  .00001666  00000+0  13070-3 0  9991,2 45751  53.0532 102.3905 0001350  87.4426 272.6718 15.06396225296146
STARLINK-1477,45754,53.0526,0.0001358,15.0640267,546.2629135620182,548.1438360078109,1 45754U 20038AA  25298.76362575  .00001809  00000+0  14029-3 0  9991,2 45754  53.0526 102.3224 0001358  95.0959 265.0185 15.06402670296146
STARLINK-1478,45755,53.0541,0.0001375,15.06397596,546.2666894220301,548.1711623016417,1 45755U 20038AB  25298.78206242  .00000123  00000+0  27130-4 0  9998,2 45755  53.0541 102.2429 0001375  86.9298 273.1849 15.06397596296130
STARLINK-1484,45756,53.0182,0.0001148,15.59342327,388.7823902264763,390.33625330195264,1 45756U 20038AC  25298.49653661  .00089955  00000+0  11143-2 0  9993,2 45756  53.0182  11.4842 0001148 298.7712  61.3184 15.59342327297381
STARLINK-1493,45759,53.055,0.0001406,15.06400811,546.2353686834267,548.1827759989692,1 45759U 20038AF  25298.77100544  .00000147  00000+0  28766-4 0  9991,2 45759  53.0550 102.2913 0001406  94.3379 265.7770 15.06400811296135
STARLINK-1494,45760,53.055,0.0001244,15.50832038,413.4505286974072,415.1404859052236,1 45760U 20038AG  25298.67276925  .00043006  00000+0  73636-3 0  9995,2 45760  53.0550  89.6801 0001244  16.9047 343.2002 15.50832038296312
STARLINK-1502,45764,53.0552,0.0001236,15.06400525,546.3539760064759,548.0659217722423,1 45764U 20038AL  25298.73782867  .00000877  00000+0  77779-4 0  9995,2 45764  53.0552 102.4378 0001236  85.4298 274.6832 15.06400525296143
STARLINK-1470,45772,53.049,0.0003946,15.17303645,511.2741060681492,516.7133756488338,1 45772U 20038AU  25298.70201468  .00013463  00000+0  68154-3 0  9995,2 45772  53.0490  75.5220 0003946 199.3729 160.7115 15.17303645296510
STARLINK-1482,45773,53.0537,0.0001411,15.06399068,546.2372473009473,548.1915814700878,1 45773U 20038AV  25298.70281426  .00000090  00000+0  24923-4 0  9997,2 45773  53.0537  82.5970 0001411  88.1389 271.9762 15.06399068296419
STARLINK-1485,45774,53.0416,0.0007277,16.05171544,255.29154742874198,264.95286988101907,1 45774U 20038AW  25298.67953795  .00630464  20358-3  88599-3 0  9993,2 45774  53.0416  14.3296 0007277 359.1187   0.9831 16.05171544297362
STARLINK-1496,45780,53.0536,0.0001262,15.06414182,546.2941189891917,548.0420659945357,1 45780U 20038BC  25298.73598170  .00000314  00000+0  39940-4 0  9999,2 45780  53.0536  82.4474 0001262  82.1742 277.9390 15.06414182296402
STARLINK-1497,45781,53.0405,0.0005703,15.52497398,405.5662015580201,413.30810863932584,1 45781U 20038BD  25298.83336806  .00156552  00000+0  24691-2 0  9998,2 45781  53.0405  29.2672 0005703 248.9068  96.8647 15.52497398  5934
STARLINK-1510,45784,53.0338,0.0001048,15.67567222,365.15877318930325,366.5723161226624,1 45784U 20038BG  25298.83336806  .00116133  00000+0  10372-2 0  9993,2 45784  53.0338   6.1050 0001048  89.1815 179.0189 15.67567222  5989
STARLINK-1513,45786,53.055,0.0001486,15.06389715,546.2139686814025,548.2721916412265,1 45786U 20038BJ  25298.69912698  .00001815  00000+0  14073-3 0  9991,2 45786  53.0550  82.6158 0001486  99.2676 260.8481 15.06389715296414
STARLINK-1522,46027,53.055,0.0001347,15.06414543,546.2341476495121,548.0998245433666,1 46027U 20055A   25298.48074029  .00005695  00000+0  40077-3 0  9996,2 46027  53.0550  13.5935 0001347 103.2792 256.8347 15.06414543288505
STARLINK-1523,46028,53.0558,0.0001409,15.06421796,546.1689849433415,548.1205293425046,1 46028U 20055B   25298.49547792  .00010745  00000+0  73871-3 0  9990,2 46028  53.0558  13.5306 0001409  90.8889 269.2261 15.06421796288526
STARLINK-1526,46029,53.055,0.0001493,15.06424891,546.1013285085091,548.1692148088259,1 46029U 20055C   25298.48810615  .00020466  00000+0  13880-2 0  9991,2 46029  53.0550  13.5593 0001493  99.6676 260.4482 15.06424891288517
STARLINK-1555,46032,53.0552,0.0001457,15.06421037,546.138069422549,548.1560972044272,1 46032U 20055F   25298.47336880  .00014895  00000+0  10162-2 0  9990,2 46032  53.0552  13.6252 0001457  96.8935 263.2220 15.06421037288513
STARLINK-1556,46033,53.0567,0.0001183,15.06412032,546.3554174646906,547.9939462086131,1 46033U 20055G   25298.52127722  .00003506  00000+0  25408-3 0  9997,2 46033  53.0567  13.4149 0001183  86.4197 273.6928 15.06412032288496
STARLINK-1557,46034,53.057,0.0002281,15.06401358,545.6277248102961,548.787066923689,1 46034U 20055H   25298.59131797 -.00000081  00000+0  13496-4 0  9993,2 46034  53.0570  13.0970 0002281  54.3836 305.7366 15.06401358288507
STARLINK-1558,46035,53.0547,0.0001569,15.06446945,545.9811173964044,548.1542466256187,1 46035U 20055J   25298.59868346  .00016419  00000+0  11171-2 0  9998,2 46035  53.0547  13.0671 0001569  83.1712 276.9455 15.06446945288533
